NORAD_CAT_ID,OBJECT_NAME,OBJECT_TYPE,EPOCH,MEAN_MOTION,ECCENTRICITY,INCLINATION,RA_OF_ASC_NODE,ARG_OF_PERICENTER,MEAN_ANOMALY,BSTAR,MEAN_MOTION_DOT,MEAN_MOTION_DDOT,TLE_LINE0,TLE_LINE1,TLE_LINE2,SEMIMAJOR_AXIS,PERIOD,APOGEE,PERIGEE,DECAYED
52456.0,STARLINK-3896,PAYLOAD,2022-11-15 14:59:18,15.08838831,0.0001581,53.2172,101.3222,54.8505,305.2635,5.335e-05,5.61e-06,0.0,0 STARLINK-3896,1 52456U 22049F   22319.62451973  .00000561  00000-0  53350-4 0  9995,2 52456  53.2172 101.3222 0001581  54.8505 305.2635 15.08838831 29591,6917.884,95.438,540.8430000000002,538.655,0.0
52456.0,STARLINK-3896,PAYLOAD,2022-11-15 16:34:41,15.08839136,0.0001547,53.2172,101.0248,57.9417,302.1725,7.2357e-05,8.64e-06,0.0,0 STARLINK-3896,1 52456U 22049F   22319.69075960  .00000864  00000-0  72357-4 0  9994,2 52456  53.2172 101.0248 0001547  57.9417 302.1725 15.08839136 29443,6917.8830000000025,95.438,540.818,538.678,0.0
52456.0,STARLINK-3896,PAYLOAD,2022-11-16 11:39:19,15.08832453,0.0001692,53.2181,97.457,48.5993,311.5144,1.3571e-05,-7.2e-07,0.0,0 STARLINK-3896,1 52456U 22049F   22320.48564708 -.00000072  00000-0  13571-4 0  9991,2 52456  53.2181  97.4570 0001692  48.5993 311.5144 15.08832453 29720,6917.903,95.438,540.939,538.5980000000002,0.0
52456.0,STARLINK-3896,PAYLOAD,2022-11-16 16:25:29,15.08834637,0.0001774,53.2182,96.5654,46.1274,313.9864,2.6038e-05,1.26e-06,0.0,0 STARLINK-3896,1 52456U 22049F   22320.68436586  .00000126  00000-0  26038-4 0  9996,2 52456  53.2182  96.5654 0001774  46.1274 313.9864 15.08834637 29597,6917.897,95.438,540.989,538.535,0.0
52456.0,STARLINK-3896,PAYLOAD,2022-11-17 09:54:44,15.08824427,0.0001751999999999,53.2184,93.2947,48.2071,311.9071,-1.8385e-05,-5.81e-06,0.0,0 STARLINK-3896,1 52456U 22049F   22321.41301581 -.00000581  00000-0 -18385-4 0  9997,2 52456  53.2184  93.2947 0001752  48.2071 311.9071 15.08824427 29866,6917.928000000001,95.439,541.005,538.581,0.0
52456.0,STARLINK-3896,PAYLOAD,2022-11-17 11:30:07,15.08824201,0.0001744,53.2184,92.9972,48.2322,311.8819,-2.2468e-05,-6.45e-06,0.0,0 STARLINK-3896,1 52456U 22049F   22321.47925633 -.00000645  00000-0 -22468-4 0  9991,2 52456  53.2184  92.9972 0001744  48.2322 311.8819 15.08824201 29713,6917.929,95.439,541.0,538.587,0.0
52456.0,STARLINK-3896,PAYLOAD,2022-11-17 14:40:53,15.08826188,0.0001728,53.2185,92.4026,48.765,311.349,-1.0055e-05,-4.48e-06,0.0,0 STARLINK-3896,1 52456U 22049F   22321.61173515 -.00000448  00000-0 -10055-4 0  9991,2 52456  53.2185  92.4026 0001728  48.7650 311.3490 15.08826188 29738,6917.9230000000025,95.438,540.9830000000002,538.592,0.0
52456.0,STARLINK-3896,PAYLOAD,2022-11-18 09:45:31,15.08833775,0.0001838,53.2187,88.8345,49.3105,310.8047,9.7112e-05,1.258e-05,0.0,0 STARLINK-3896,1 52456U 22049F   22322.40661009  .00001258  00000-0  97112-4 0  9996,2 52456  53.2187  88.8345 0001838  49.3105 310.8047 15.08833775 30012,6917.899,95.438,541.036,538.493,0.0
52456.0,STARLINK-3896,PAYLOAD,2022-11-19 01:39:21,15.08845515,0.0001869,53.2188,85.8606,46.1814,313.9333,0.00011737,1.581e-05,0.0,0 STARLINK-3896,1 52456U 22049F   22323.06900273  .00001581  00000-0  11737-3 0  9995,2 52456  53.2188  85.8606 0001869  46.1814 313.9333 15.08845515 30114,6917.864000000001,95.437,541.021,538.436,0.0
52456.0,STARLINK-3896,PAYLOAD,2022-11-19 08:00:54,15.08837974,0.0001768,53.2187,84.67200000000003,44.2871,315.8263,0.00016163,2.285e-05,0.0,0 STARLINK-3896,1 52456U 22049F   22323.33396620  .00002285  00000-0  16163-3 0  9990,2 52456  53.2187  84.6720 0001768  44.2871 315.8263 15.08837974 29994,6917.887,95.438,540.975,538.528,0.0
52456.0,STARLINK-3896,PAYLOAD,2022-11-19 14:22:27,15.08838867,0.0001834,53.2188,83.48200000000001,47.0086,313.106,0.00015729,2.216e-05,0.0,0 STARLINK-3896,1 52456U 22049F   22323.59892623  .00002216  00000-0  15729-3 0  9993,2 52456  53.2188  83.4820 0001834  47.0086 313.1060 15.08838867 30198,6917.884,95.438,541.018,538.48,0.0
52456.0,STARLINK-3896,PAYLOAD,2022-11-20 12:37:51,15.08845715,0.0001686,53.2184,79.319,42.1806,317.9316,1.6982e-05,-1.8e-07,0.0,0 STARLINK-3896,1 52456U 22049F   22324.52628511 -.00000018  00000-0  16982-4 0  9992,2 52456  53.2184  79.3190 0001686  42.1806 317.9316 15.08845715 30173,6917.863,95.437,540.894,538.562,0.0
52456.0,STARLINK-3896,PAYLOAD,2022-11-20 14:13:14,15.08846824,0.0001717,53.2184,79.0216,42.2722,317.8403,2.689e-05,1.4e-06,0.0,0 STARLINK-3896,1 52456U 22049F   22324.59252406  .00000140  00000-0  26890-4 0  9999,2 52456  53.2184  79.0216 0001717  42.2722 317.8403 15.08846824 30181,6917.86,95.437,540.9119999999998,538.5369999999998,0.0
52456.0,STARLINK-3896,PAYLOAD,2022-11-21 01:20:55,15.0884703,0.0001718,53.2181,76.9405,40.6509,319.4611,-9.2999e-07,-3.03e-06,0.0,0 STARLINK-3896,1 52456U 22049F   22325.05620229 -.00000303  00000-0 -92999-6 0  9991,2 52456  53.2181  76.9405 0001718  40.6509 319.4611 15.08847030 30415,6917.859,95.437,540.9119999999998,538.535,0.0
52456.0,STARLINK-3896,PAYLOAD,2022-11-21 07:42:28,15.08838809,0.0001853,53.2198,75.7524,41.1248,318.9883,9.5824e-06,-1.36e-06,0.0,0 STARLINK-3896,1 52456U 22049F   22325.32116825 -.00000136  00000-0  95824-5 0  9995,2 52456  53.2198  75.7524 0001853  41.1248 318.9883 15.08838809 30451,6917.884,95.438,541.031,538.467,0.0
52456.0,STARLINK-3896,PAYLOAD,2022-11-21 10:53:15,15.08835092,0.0001725,53.2196,75.1566,44.0377,316.0752,-7.066599999999999e-06,-4.01e-06,0.0,0 STARLINK-3896,1 52456U 22049F   22325.45365022 -.00000401  00000-0 -70666-5 0  9997,2 52456  53.2196  75.1566 0001725  44.0377 316.0752 15.08835092 30312,6917.895,95.438,540.9540000000002,538.567,0.0
52456.0,STARLINK-3896,PAYLOAD,2022-11-21 14:04:02,15.0882984,0.0001769,53.2188,74.5619,41.8275,318.2852,-6.7369e-05,-1.36e-05,0.0,0 STARLINK-3896,1 52456U 22049F   22325.58613581 -.00001360  00000-0 -67369-4 0  9997,2 52456  53.2188  74.5619 0001769  41.8275 318.2852 15.08829840 30493,6917.911,95.438,541.0,538.553,0.0
52456.0,STARLINK-3896,PAYLOAD,2022-11-22 13:54:47,15.08843731,0.0001947,53.2196,70.1019,40.3545,319.7592,-9.3265e-06,-4.37e-06,0.0,0 STARLINK-3896,1 52456U 22049F   22326.57971744 -.00000437  00000-0 -93265-5 0  9994,2 52456  53.2196  70.1019 0001947  40.3545 319.7592 15.08843731 30649,6917.869000000002,95.437,541.081,538.387,0.0
52456.0,STARLINK-3896,PAYLOAD,2022-11-23 05:48:40,15.08821445,0.0002052,53.2193,67.1281,38.5568,321.5571,-3.9217e-05,-9.12e-06,0.0,0 STARLINK-3896,1 52456U 22049F   22327.24213477 -.00000912  00000-0 -39217-4 0  9995,2 52456  53.2193  67.1281 0002052  38.5568 321.5571 15.08821445 30742,6917.937,95.439,541.222,538.383,0.0
52456.0,STARLINK-3896,PAYLOAD,2022-11-23 13:45:35,15.0882853,0.0002074,53.2195,65.642,38.9544,321.1597,1.3701e-05,-7e-07,0.0,0 STARLINK-3896,1 52456U 22049F   22327.57333100 -.00000070  00000-0  13701-4 0  9991,2 52456  53.2195  65.6420 0002074  38.9544 321.1597 15.08828530 30795,6917.915,95.438,541.215,538.346,0.0
52456.0,STARLINK-3896,PAYLOAD,2022-11-24 05:39:26,15.08847017,0.0002217,53.2195,62.6684,38.9447,321.1704,-0.00010984,-2.036e-05,0.0,0 STARLINK-3896,1 52456U 22049F   22328.23572226 -.00002036  00000-0 -10984-3 0  9993,2 52456  53.2195  62.6684 0002217  38.9447 321.1704 15.08847017 30897,6917.859,95.437,541.258,538.19,0.0
52456.0,STARLINK-3896,PAYLOAD,2022-11-24 10:25:36,15.08840941,0.0002159,53.22,61.7759,40.5798,319.5355,-0.00015621,-2.774e-05,0.0,0 STARLINK-3896,1 52456U 22049F   22328.43444759 -.00002774  00000-0 -15621-3 0  9996,2 52456  53.2200  61.7759 0002159  40.5798 319.5355 15.08840941 30768,6917.878000000002,95.437,541.236,538.249,0.0
52456.0,STARLINK-3896,PAYLOAD,2022-11-24 12:00:59,15.08840448,0.0002155,53.2202,61.4786,42.6334,317.4825,-0.00016116,-2.852e-05,0.0,0 STARLINK-3896,1 52456U 22049F   22328.50068819 -.00002852  00000-0 -16116-3 0  9990,2 52456  53.2202  61.4786 0002155  42.6334 317.4825 15.08840448 30932,6917.879,95.438,541.235,538.253,0.0
52456.0,STARLINK-3896,PAYLOAD,2022-11-24 13:36:22,15.08837105,0.0002183,53.2196,61.1811,39.5784,320.5367,-0.00013862,-2.494e-05,0.0,0 STARLINK-3896,1 52456U 22049F   22328.56692963 -.00002494  00000-0 -13862-3 0  9996,2 52456  53.2196  61.1811 0002183  39.5784 320.5367 15.08837105 30780,6917.889,95.438,541.264,538.244,0.0
52456.0,STARLINK-3896,PAYLOAD,2022-11-25 11:51:46,15.08835525,0.000216,53.2196,57.0184,40.3842,319.731,9.6046e-05,1.24e-05,0.0,0 STARLINK-3896,1 52456U 22049F   22329.49428916  .00001240  00000-0  96046-4 0  9996,2 52456  53.2196  57.0184 0002160  40.3842 319.7310 15.08835525 30925,6917.894,95.438,541.253,538.265,0.0
52456.0,STARLINK-3896,PAYLOAD,2022-11-25 13:27:09,15.08833242,0.0002114,53.2192,56.7211,38.9312,321.1832,8.1721e-05,1.012e-05,0.0,0 STARLINK-3896,1 52456U 22049F   22329.56053120  .00001012  00000-0  81721-4 0  9996,2 52456  53.2192  56.7211 0002114  38.9312 321.1832 15.08833242 31091,6917.901,95.438,541.2280000000002,538.304,0.0
52456.0,STARLINK-3896,PAYLOAD,2022-11-26 11:42:34,15.08827983,0.0002175,53.2191,52.5582,38.7815,321.3333,5.5081e-05,5.88e-06,0.0,0 STARLINK-3896,1 52456U 22049F   22330.48790005  .00000588  00000-0  55081-4 0  9996,2 52456  53.2191  52.5582 0002175  38.7815 321.3333 15.08827983 31079,6917.917,95.438,541.2869999999998,538.2769999999998,0.0
52456.0,STARLINK-3896,PAYLOAD,2022-11-26 14:53:20,15.08830027,0.0002178,53.2191,51.9633,38.5352,321.5795,7.2425e-05,8.64e-06,0.0,0 STARLINK-3896,1 52456U 22049F   22330.62037912  .00000864  00000-0  72425-4 0  9991,2 52456  53.2191  51.9633 0002178  38.5352 321.5795 15.08830027 31253,6917.911,95.438,541.283,538.269,0.0
52456.0,STARLINK-3896,PAYLOAD,2022-11-27 05:11:48,15.08843789,0.0002147,53.2193,49.2872,36.4548,323.659,7.5452e-05,9.13e-06,0.0,0 STARLINK-3896,1 52456U 22049F   22331.21653105  .00000913  00000-0  75452-4 0  9993,2 52456  53.2193  49.2872 0002147  36.4548 323.6590 15.08843789 31345,6917.869000000002,95.437,541.219,538.249,0.0
